{"fetched_at":"2026-07-21T07:06:30.167Z","source":"https://celestrak.org/NORAD/elements/gp.php?GROUP=planet&FORMAT=JSON","constellation":"superdove","records":[{"OBJECT_NAME":"FLOCK 4BE-3","OBJECT_ID":"2024-149CX","EPOCH":"2026-07-20T18:14:08.451456","CLASSIFICATION_TYPE":"U","MEAN_MOTION":15.42511642,"ECCENTRICITY":0.00053911,"INCLINATION":97.3683,"RA_OF_ASC_NODE":286.0157,"ARG_OF_PERICENTER":153.0373,"MEAN_ANOMALY":207.1156,"EPHEMERIS_TYPE":0,"NORAD_CAT_ID":60561,"ELEMENT_SET_NO":999,"REV_AT_EPOCH":10751,"BSTAR":0.00025600233,"MEAN_MOTION_DOT":0.0001102,"MEAN_MOTION_DDOT":0},{"OBJECT_NAME":"FLOCK 4BE-19","OBJECT_ID":"2024-149CZ","EPOCH":"2026-07-20T19:15:12.119040","CLASSIFICATION_TYPE":"U","MEAN_MOTION":15.45831304,"ECCENTRICITY":0.00061925,"INCLINATION":97.373,"RA_OF_ASC_NODE":287.7736,"ARG_OF_PERICENTER":158.2265,"MEAN_ANOMALY":201.9249,"EPHEMERIS_TYPE":0,"NORAD_CAT_ID":60563,"ELEMENT_SET_NO":999,"REV_AT_EPOCH":10761,"BSTAR":0.0003719819,"MEAN_MOTION_DOT":0.0001798,"MEAN_MOTION_DDOT":0},{"OBJECT_NAME":"FLOCK 4G-8","OBJECT_ID":"2025-009E","EPOCH":"2026-07-20T18:22:56.989632","CLASSIFICATION_TYPE":"U","MEAN_MOTION":15.30306968,"ECCENTRICITY":0.00046581,"INCLINATION":97.3993,"RA_OF_ASC_NODE":283.6417,"ARG_OF_PERICENTER":173.717,"MEAN_ANOMALY":186.413,"EPHEMERIS_TYPE":0,"NORAD_CAT_ID":62613,"ELEMENT_SET_NO":999,"REV_AT_EPOCH":8405,"BSTAR":0.00022242552,"MEAN_MOTION_DOT":0.00006445,"MEAN_MOTION_DDOT":0},{"OBJECT_NAME":"FLOCK 4G-13","OBJECT_ID":"2025-009N","EPOCH":"2026-07-20T18:46:32.037600","CLASSIFICATION_TYPE":"U","MEAN_MOTION":15.49512168,"ECCENTRICITY":0.00067333,"INCLINATION":97.3937,"RA_OF_ASC_NODE":285.7729,"ARG_OF_PERICENTER":184.2333,"MEAN_ANOMALY":175.8862,"EPHEMERIS_TYPE":0,"NORAD_CAT_ID":62621,"ELEMENT_SET_NO":999,"REV_AT_EPOCH":8419,"BSTAR":0.0010913078,"MEAN_MOTION_DOT":0.00060447,"MEAN_MOTION_DDOT":0},{"OBJECT_NAME":"FLOCK 4G-9","OBJECT_ID":"2025-009P","EPOCH":"2026-07-20T17:30:30.830400","CLASSIFICATION_TYPE":"U","MEAN_MOTION":15.2856468,"ECCENTRICITY":0.00046278,"INCLINATION":97.3949,"RA_OF_ASC_NODE":282.4422,"ARG_OF_PERICENTER":184.7517,"MEAN_ANOMALY":175.368,"EPHEMERIS_TYPE":0,"NORAD_CAT_ID":62622,"ELEMENT_SET_NO":999,"REV_AT_EPOCH":8398,"BSTAR":0.00019521884,"MEAN_MOTION_DOT":0.00005351,"MEAN_MOTION_DDOT":0},{"OBJECT_NAME":"FLOCK 4G-7","OBJECT_ID":"2025-009R","EPOCH":"2026-07-20T03:54:20.772288","CLASSIFICATION_TYPE":"U","MEAN_MOTION":15.29930619,"ECCENTRICITY":0.00030808,"INCLINATION":97.393,"RA_OF_ASC_NODE":282.3048,"ARG_OF_PERICENTER":167.6863,"MEAN_ANOMALY":192.4453,"EPHEMERIS_TYPE":0,"NORAD_CAT_ID":62624,"ELEMENT_SET_NO":999,"REV_AT_EPOCH":8394,"BSTAR":0.00019779383,"MEAN_MOTION_DOT":0.00005656,"MEAN_MOTION_DDOT":0},{"OBJECT_NAME":"FLOCK 4G-12","OBJECT_ID":"2025-009S","EPOCH":"2026-07-20T19:29:52.336320","CLASSIFICATION_TYPE":"U","MEAN_MOTION":15.29844153,"ECCENTRICITY":0.00047508,"INCLINATION":97.4009,"RA_OF_ASC_NODE":283.5061,"ARG_OF_PERICENTER":170.5832,"MEAN_ANOMALY":189.5499,"EPHEMERIS_TYPE":0,"NORAD_CAT_ID":62625,"ELEMENT_SET_NO":999,"REV_AT_EPOCH":8404,"BSTAR":0.00026273317,"MEAN_MOTION_DOT":0.0000752,"MEAN_MOTION_DDOT":0},{"OBJECT_NAME":"FLOCK 4G-11","OBJECT_ID":"2025-009W","EPOCH":"2026-07-20T19:07:29.860032","CLASSIFICATION_TYPE":"U","MEAN_MOTION":15.29952403,"ECCENTRICITY":0.00032219,"INCLINATION":97.3911,"RA_OF_ASC_NODE":283.0426,"ARG_OF_PERICENTER":168.0419,"MEAN_ANOMALY":192.0899,"EPHEMERIS_TYPE":0,"NORAD_CAT_ID":62629,"ELEMENT_SET_NO":999,"REV_AT_EPOCH":8405,"BSTAR":0.00024203304,"MEAN_MOTION_DOT":0.00006943,"MEAN_MOTION_DDOT":0},{"OBJECT_NAME":"FLOCK 4G-26","OBJECT_ID":"2025-009AA","EPOCH":"2026-07-20T19:26:01.710528","CLASSIFICATION_TYPE":"U","MEAN_MOTION":15.30148761,"ECCENTRICITY":0.00041714,"INCLINATION":97.4007,"RA_OF_ASC_NODE":283.6666,"ARG_OF_PERICENTER":161.2879,"MEAN_ANOMALY":198.8516,"EPHEMERIS_TYPE":0,"NORAD_CAT_ID":62633,"ELEMENT_SET_NO":999,"REV_AT_EPOCH":8405,"BSTAR":0.00025300325,"MEAN_MOTION_DOT":0.00007306,"MEAN_MOTION_DDOT":0},{"OBJECT_NAME":"FLOCK 4G-28","OBJECT_ID":"2025-009AB","EPOCH":"2026-07-20T18:09:15.278976","CLASSIFICATION_TYPE":"U","MEAN_MOTION":15.35337434,"ECCENTRICITY":0.00025808,"INCLINATION":97.4017,"RA_OF_ASC_NODE":286.443,"ARG_OF_PERICENTER":150.4512,"MEAN_ANOMALY":209.6878,"EPHEMERIS_TYPE":0,"NORAD_CAT_ID":62634,"ELEMENT_SET_NO":999,"REV_AT_EPOCH":8423,"BSTAR":0.00016247615,"MEAN_MOTION_DOT":0.00005494,"MEAN_MOTION_DDOT":0},{"OBJECT_NAME":"FLOCK 4G-24","OBJECT_ID":"2025-009AE","EPOCH":"2026-07-20T22:49:01.407936","CLASSIFICATION_TYPE":"U","MEAN_MOTION":15.30436183,"ECCENTRICITY":0.00041403,"INCLINATION":97.4013,"RA_OF_ASC_NODE":284.1152,"ARG_OF_PERICENTER":150.8877,"MEAN_ANOMALY":209.2596,"EPHEMERIS_TYPE":0,"NORAD_CAT_ID":62637,"ELEMENT_SET_NO":999,"REV_AT_EPOCH":8409,"BSTAR":0.00025286732,"MEAN_MOTION_DOT":0.00007368,"MEAN_MOTION_DDOT":0},{"OBJECT_NAME":"FLOCK 4G-3","OBJECT_ID":"2025-009AG","EPOCH":"2026-07-20T17:59:20.014080","CLASSIFICATION_TYPE":"U","MEAN_MOTION":15.29936389,"ECCENTRICITY":0.00037234,"INCLINATION":97.4012,"RA_OF_ASC_NODE":283.6187,"ARG_OF_PERICENTER":155.599,"MEAN_ANOMALY":204.5427,"EPHEMERIS_TYPE":0,"NORAD_CAT_ID":62639,"ELEMENT_SET_NO":999,"REV_AT_EPOCH":8403,"BSTAR":0.00019747249,"MEAN_MOTION_DOT":0.00005647,"MEAN_MOTION_DDOT":0},{"OBJECT_NAME":"FLOCK 4G-27","OBJECT_ID":"2025-009AJ","EPOCH":"2026-07-20T18:27:52.546752","CLASSIFICATION_TYPE":"U","MEAN_MOTION":15.29868774,"ECCENTRICITY":0.00030802,"INCLINATION":97.3922,"RA_OF_ASC_NODE":282.9791,"ARG_OF_PERICENTER":156.8688,"MEAN_ANOMALY":203.2692,"EPHEMERIS_TYPE":0,"NORAD_CAT_ID":62641,"ELEMENT_SET_NO":999,"REV_AT_EPOCH":8403,"BSTAR":0.00020640181,"MEAN_MOTION_DOT":0.00005894,"MEAN_MOTION_DDOT":0},{"OBJECT_NAME":"FLOCK 4G-29","OBJECT_ID":"2025-009AK","EPOCH":"2026-07-20T22:49:04.232352","CLASSIFICATION_TYPE":"U","MEAN_MOTION":15.29915532,"ECCENTRICITY":0.00038804,"INCLINATION":97.4008,"RA_OF_ASC_NODE":283.7784,"ARG_OF_PERICENTER":151.5739,"MEAN_ANOMALY":208.5713,"EPHEMERIS_TYPE":0,"NORAD_CAT_ID":62642,"ELEMENT_SET_NO":999,"REV_AT_EPOCH":8406,"BSTAR":0.0001879917,"MEAN_MOTION_DOT":0.00005369,"MEAN_MOTION_DDOT":0},{"OBJECT_NAME":"FLOCK 4G-22","OBJECT_ID":"2025-009AN","EPOCH":"2026-07-20T21:41:54.926880","CLASSIFICATION_TYPE":"U","MEAN_MOTION":15.2983842,"ECCENTRICITY":0.00034283,"INCLINATION":97.3995,"RA_OF_ASC_NODE":283.7643,"ARG_OF_PERICENTER":148.2801,"MEAN_ANOMALY":211.8647,"EPHEMERIS_TYPE":0,"NORAD_CAT_ID":62645,"ELEMENT_SET_NO":999,"REV_AT_EPOCH":8407,"BSTAR":0.00025634961,"MEAN_MOTION_DOT":0.00007333,"MEAN_MOTION_DDOT":0},{"OBJECT_NAME":"FLOCK 4G-25","OBJECT_ID":"2025-009AP","EPOCH":"2026-07-20T22:37:00.405984","CLASSIFICATION_TYPE":"U","MEAN_MOTION":15.30075528,"ECCENTRICITY":0.00028933,"INCLINATION":97.4001,"RA_OF_ASC_NODE":283.8839,"ARG_OF_PERICENTER":149.6269,"MEAN_ANOMALY":210.514,"EPHEMERIS_TYPE":0,"NORAD_CAT_ID":62646,"ELEMENT_SET_NO":999,"REV_AT_EPOCH":8408,"BSTAR":0.00023569984,"MEAN_MOTION_DOT":0.00006785,"MEAN_MOTION_DDOT":0}]}
