FLOCK 4BE-3             
1 60561U 24149CX  26201.75982004  .00011020  00000+0  25600-3 0  9993
2 60561  97.3683 286.0157 0005391 153.0373 207.1156 15.42511642107512
FLOCK 4BE-19            
1 60563U 24149CZ  26201.80222360  .00017980  00000+0  37198-3 0  9999
2 60563  97.3730 287.7736 0006192 158.2265 201.9249 15.45831304107614
FLOCK 4G-8              
1 62613U 25009E   26201.76593738  .00006445  00000+0  22243-3 0  9997
2 62613  97.3993 283.6417 0004658 173.7170 186.4130 15.30306968 84051
FLOCK 4G-13             
1 62621U 25009N   26201.78231525  .00060447  00000+0  10913-2 0  9993
2 62621  97.3937 285.7729 0006733 184.2333 175.8862 15.49512168 84191
FLOCK 4G-9              
1 62622U 25009P   26201.72952350  .00005351  00000+0  19522-3 0  9993
2 62622  97.3949 282.4422 0004627 184.7517 175.3680 15.28564680 83980
FLOCK 4G-7              
1 62624U 25009R   26201.16274042  .00005656  00000+0  19779-3 0  9990
2 62624  97.3930 282.3048 0003080 167.6863 192.4453 15.29930619 83945
FLOCK 4G-12             
1 62625U 25009S   26201.81241130  .00007520  00000+0  26273-3 0  9994
2 62625  97.4009 283.5061 0004750 170.5832 189.5499 15.29844153 84042
FLOCK 4G-11             
1 62629U 25009W   26201.79687338  .00006943  00000+0  24203-3 0  9998
2 62629  97.3911 283.0426 0003221 168.0419 192.0899 15.29952403 84054
FLOCK 4G-26             
1 62633U 25009AA  26201.80974202  .00007306  00000+0  25300-3 0  9997
2 62633  97.4007 283.6666 0004171 161.2879 198.8516 15.30148761 84054
FLOCK 4G-28             
1 62634U 25009AB  26201.75642684  .00005494  00000+0  16248-3 0  9995
2 62634  97.4017 286.4430 0002580 150.4512 209.6878 15.35337434 84236
FLOCK 4G-24             
1 62637U 25009AE  26201.95071074  .00007368  00000+0  25287-3 0  9994
2 62637  97.4013 284.1152 0004140 150.8877 209.2596 15.30436183 84096
FLOCK 4G-3              
1 62639U 25009AG  26201.74953720  .00005647  00000+0  19747-3 0  9992
2 62639  97.4012 283.6187 0003723 155.5990 204.5427 15.29936389 84039
FLOCK 4G-27             
1 62641U 25009AJ  26201.76935818  .00005894  00000+0  20640-3 0  9993
2 62641  97.3922 282.9791 0003080 156.8688 203.2692 15.29868774 84030
FLOCK 4G-29             
1 62642U 25009AK  26201.95074343  .00005369  00000+0  18799-3 0  9991
2 62642  97.4008 283.7784 0003880 151.5739 208.5713 15.29915532 84065
FLOCK 4G-22             
1 62645U 25009AN  26201.90410795  .00007333  00000+0  25635-3 0  9994
2 62645  97.3995 283.7643 0003428 148.2801 211.8647 15.29838420 84071
FLOCK 4G-25             
1 62646U 25009AP  26201.94236581  .00006785  00000+0  23570-3 0  9994
2 62646  97.4001 283.8839 0002893 149.6269 210.5140 15.30075528 84086
